{
  "type": "FeatureCollection",
  "features": [
    {
      "type": "Feature",
      "properties": {
        "norad_id": 66918,
        "name": "HULIANWANG DIGUI 14D",
        "group": "last-30-days",
        "lat": 30.843059636927677,
        "lon": 155.3061913569969,
        "alt_km": 872.9252908390381,
        "timestamp": "2025-12-10T18:56:58.834477+00:00",
        "meta_object_name": "HULIANWANG DIGUI 14D",
        "meta_object_id": "2025-285D",
        "meta_epoch": "2025-12-10T11:55:32.926368",
        "meta_mean_motion": 14.05703368,
        "meta_eccentricity": 0.0006461,
        "meta_inclination": 50.0042,
        "meta_ra_of_asc_node": 126.4163,
        "meta_arg_of_pericenter": 272.5409,
        "meta_mean_anomaly": 87.4756,
        "meta_ephemeris_type": 0,
        "meta_classification_type": "U",
        "meta_norad_cat_id": 66918,
        "meta_element_set_no": 999,
        "meta_rev_at_epoch": 59,
        "meta_bstar": 5.2437e-06,
        "meta_mean_motion_dot": -1.44e-06,
        "meta_mean_motion_ddot": 0,
        "tle_line1": "1 66918U 25285D   25344.49690887 -.00000144  00000+0  52437-5 0  9996",
        "tle_line2": "2 66918  50.0042 126.4163 0006461 272.5409  87.4756 14.05703368   590"
      },
      "geometry": {
        "type": "Point",
        "coordinates": [
          155.3061913569969,
          30.843059636927677
        ]
      }
    },
    {
      "type": "Feature",
      "properties": {
        "norad_id": 66919,
        "name": "HULIANWANG DIGUI 14E",
        "group": "last-30-days",
        "lat": 31.035974917675002,
        "lon": 155.56167252640282,
        "alt_km": 872.5623088968241,
        "timestamp": "2025-12-10T18:56:58.834489+00:00",
        "meta_object_name": "HULIANWANG DIGUI 14E",
        "meta_object_id": "2025-285E",
        "meta_epoch": "2025-12-10T11:55:28.322976",
        "meta_mean_motion": 14.057145,
        "meta_eccentricity": 0.0007862,
        "meta_inclination": 50.0056,
        "meta_ra_of_asc_node": 126.4189,
        "meta_arg_of_pericenter": 283.9415,
        "meta_mean_anomaly": 76.0616,
        "meta_ephemeris_type": 0,
        "meta_classification_type": "U",
        "meta_norad_cat_id": 66919,
        "meta_element_set_no": 999,
        "meta_rev_at_epoch": 59,
        "meta_bstar": -5.3243e-06,
        "meta_mean_motion_dot": -1.61e-06,
        "meta_mean_motion_ddot": 0,
        "tle_line1": "1 66919U 25285E   25344.49685559 -.00000161  00000+0 -53243-5 0  9993",
        "tle_line2": "2 66919  50.0056 126.4189 0007862 283.9415  76.0616 14.05714500   592"
      },
      "geometry": {
        "type": "Point",
        "coordinates": [
          155.56167252640282,
          31.035974917675002
        ]
      }
    },
    {
      "type": "Feature",
      "properties": {
        "norad_id": 66920,
        "name": "HULIANWANG DIGUI 14F",
        "group": "last-30-days",
        "lat": 43.660439615591734,
        "lon": 178.3235916909835,
        "alt_km": 867.2583995715895,
        "timestamp": "2025-12-10T18:56:58.834501+00:00",
        "meta_object_name": "HULIANWANG DIGUI 14F",
        "meta_object_id": "2025-285F",
        "meta_epoch": "2025-12-09T20:33:41.277600",
        "meta_mean_motion": 14.11847534,
        "meta_eccentricity": 0.00305965,
        "meta_inclination": 50.004,
        "meta_ra_of_asc_node": 128.9355,
        "meta_arg_of_pericenter": 264.6131,
        "meta_mean_anomaly": 95.1286,
        "meta_ephemeris_type": 0,
        "meta_classification_type": "U",
        "meta_norad_cat_id": 66920,
        "meta_element_set_no": 999,
        "meta_rev_at_epoch": 50,
        "meta_bstar": 0.00026468579,
        "meta_mean_motion_dot": 3.34e-06,
        "meta_mean_motion_ddot": 0,
        "tle_line1": "1 66920U 25285F   25343.85672775  .00000334  00000+0  26469-3 0  9998",
        "tle_line2": "2 66920  50.0040 128.9355 0030596 264.6131  95.1286 14.11847534   507"
      },
      "geometry": {
        "type": "Point",
        "coordinates": [
          178.3235916909835,
          43.660439615591734
        ]
      }
    },
    {
      "type": "Feature",
      "properties": {
        "norad_id": 66921,
        "name": "HULIANWANG DIGUI 14G",
        "group": "last-30-days",
        "lat": 32.75585591483368,
        "lon": 157.90511162204328,
        "alt_km": 871.3832676289921,
        "timestamp": "2025-12-10T18:56:58.834511+00:00",
        "meta_object_name": "HULIANWANG DIGUI 14G",
        "meta_object_id": "2025-285G",
        "meta_epoch": "2025-12-10T11:54:46.605600",
        "meta_mean_motion": 14.05885102,
        "meta_eccentricity": 0.0006742,
        "meta_inclination": 50.0113,
        "meta_ra_of_asc_node": 126.4219,
        "meta_arg_of_pericenter": 285.8548,
        "meta_mean_anomaly": 74.1614,
        "meta_ephemeris_type": 0,
        "meta_classification_type": "U",
        "meta_norad_cat_id": 66921,
        "meta_element_set_no": 999,
        "meta_rev_at_epoch": 59,
        "meta_bstar": 0.00025964,
        "meta_mean_motion_dot": 2.75e-06,
        "meta_mean_motion_ddot": 0,
        "tle_line1": "1 66921U 25285G   25344.49637275  .00000275  00000+0  25964-3 0  9999",
        "tle_line2": "2 66921  50.0113 126.4219 0006742 285.8548  74.1614 14.05885102   591"
      },
      "geometry": {
        "type": "Point",
        "coordinates": [
          157.90511162204328,
          32.75585591483368
        ]
      }
    },
    {
      "type": "Feature",
      "properties": {
        "norad_id": 66922,
        "name": "HULIANWANG DIGUI 14H",
        "group": "last-30-days",
        "lat": 33.91175482821043,
        "lon": 159.56985447648694,
        "alt_km": 870.3903833384866,
        "timestamp": "2025-12-10T18:56:58.834521+00:00",
        "meta_object_name": "HULIANWANG DIGUI 14H",
        "meta_object_id": "2025-285H",
        "meta_epoch": "2025-12-10T11:54:17.875008",
        "meta_mean_motion": 14.05998135,
        "meta_eccentricity": 0.0006935,
        "meta_inclination": 50.0078,
        "meta_ra_of_asc_node": 126.4163,
        "meta_arg_of_pericenter": 293.8062,
        "meta_mean_anomaly": 66.2116,
        "meta_ephemeris_type": 0,
        "meta_classification_type": "U",
        "meta_norad_cat_id": 66922,
        "meta_element_set_no": 999,
        "meta_rev_at_epoch": 59,
        "meta_bstar": -3.3227e-06,
        "meta_mean_motion_dot": -1.58e-06,
        "meta_mean_motion_ddot": 0,
        "tle_line1": "1 66922U 25285H   25344.49604022 -.00000158  00000+0 -33227-5 0  9999",
        "tle_line2": "2 66922  50.0078 126.4163 0006935 293.8062  66.2116 14.05998135   594"
      },
      "geometry": {
        "type": "Point",
        "coordinates": [
          159.56985447648694,
          33.91175482821043
        ]
      }
    },
    {
      "type": "Feature",
      "properties": {
        "norad_id": 66923,
        "name": "HULIANWANG DIGUI 14J",
        "group": "last-30-days",
        "lat": 34.50141837262474,
        "lon": 160.45037320130413,
        "alt_km": 870.0542358804996,
        "timestamp": "2025-12-10T18:56:58.834531+00:00",
        "meta_object_name": "HULIANWANG DIGUI 14J",
        "meta_object_id": "2025-285J",
        "meta_epoch": "2025-12-10T11:54:02.846592",
        "meta_mean_motion": 14.06055144,
        "meta_eccentricity": 0.0005386,
        "meta_inclination": 50.0076,
        "meta_ra_of_asc_node": 126.4161,
        "meta_arg_of_pericenter": 288.7008,
        "meta_mean_anomaly": 71.3313,
        "meta_ephemeris_type": 0,
        "meta_classification_type": "U",
        "meta_norad_cat_id": 66923,
        "meta_element_set_no": 999,
        "meta_rev_at_epoch": 59,
        "meta_bstar": 0.00021059,
        "meta_mean_motion_dot": 1.95e-06,
        "meta_mean_motion_ddot": 0,
        "tle_line1": "1 66923U 25285J   25344.49586628  .00000195  00000+0  21059-3 0  9998",
        "tle_line2": "2 66923  50.0076 126.4161 0005386 288.7008  71.3313 14.06055144   594"
      },
      "geometry": {
        "type": "Point",
        "coordinates": [
          160.45037320130413,
          34.50141837262474
        ]
      }
    },
    {
      "type": "Feature",
      "properties": {
        "norad_id": 66924,
        "name": "CZ-8A R/B",
        "group": "last-30-days",
        "lat": 47.82212605053978,
        "lon": -167.64676652329157,
        "alt_km": 705.3539491658485,
        "timestamp": "2025-12-10T18:56:58.834541+00:00",
        "meta_object_name": "CZ-8A R/B",
        "meta_object_id": "2025-285K",
        "meta_epoch": "2025-12-10T08:32:35.425248",
        "meta_mean_motion": 14.30500389,
        "meta_eccentricity": 0.0119312,
        "meta_inclination": 50.006,
        "meta_ra_of_asc_node": 126.3017,
        "meta_arg_of_pericenter": 98.3367,
        "meta_mean_anomaly": 263.1096,
        "meta_ephemeris_type": 0,
        "meta_classification_type": "U",
        "meta_norad_cat_id": 66924,
        "meta_element_set_no": 999,
        "meta_rev_at_epoch": 58,
        "meta_bstar": 9.9817e-05,
        "meta_mean_motion_dot": 1.16e-06,
        "meta_mean_motion_ddot": 0,
        "tle_line1": "1 66924U 25285K   25344.35596557  .00000116  00000+0  99817-4 0  9997",
        "tle_line2": "2 66924  50.0060 126.3017 0119312  98.3367 263.1096 14.30500389   586"
      },
      "geometry": {
        "type": "Point",
        "coordinates": [
          -167.64676652329157,
          47.82212605053978
        ]
      }
    }
  ]
}